NORAD_CAT_ID,OBJECT_NAME,OBJECT_TYPE,EPOCH,MEAN_MOTION,ECCENTRICITY,INCLINATION,RA_OF_ASC_NODE,ARG_OF_PERICENTER,MEAN_ANOMALY,BSTAR,MEAN_MOTION_DOT,MEAN_MOTION_DDOT,TLE_LINE0,TLE_LINE1,TLE_LINE2,SEMIMAJOR_AXIS,PERIOD,APOGEE,PERIGEE,DECAYED
50821.0,STARLINK-3346,PAYLOAD,2024-02-28 13:23:50,15.08846816,0.0002645,53.2162,251.5806,80.5743,279.5548,0.00011815,1.593e-05,0.0,0 STARLINK-3346,1 50821U 22001U   24059.55821861  .00001593  00000-0  11815-3 0  9994,2 50821  53.2162 251.5806 0002645  80.5743 279.5548 15.08846816118678,6917.86,95.437,541.554,537.895,0.0
50821.0,STARLINK-3346,PAYLOAD,2024-02-28 19:45:23,15.08829812,0.000143,53.2163,250.3969,105.1742,254.9409,-6.1541e-05,-1.267e-05,0.0,0 STARLINK-3346,1 50821U 22001U   24059.82319397 -.00001267  00000-0 -61541-4 0  9992,2 50821  53.2163 250.3969 0001430 105.1742 254.9409 15.08829812119963,6917.912,95.438,540.766,538.787,0.0
50821.0,STARLINK-3346,PAYLOAD,2024-02-29 05:17:42,15.08831422,0.0001558,53.2161,248.6122,97.7829,262.334,-0.0001992,-3.456e-05,0.0,0 STARLINK-3346,1 50821U 22001U   24060.22062671 -.00003456  00000-0 -19920-3 0  9993,2 50821  53.2161 248.6122 0001558  97.7829 262.3340 15.08831422120021,6917.907,95.438,540.849,538.694,0.0
50821.0,STARLINK-3346,PAYLOAD,2024-02-29 11:39:15,15.08823635,0.000157,53.217,247.4221,85.2532,274.864,5.7465e-05,6.26e-06,0.0,0 STARLINK-3346,1 50821U 22001U   24060.48559126  .00000626  00000-0  57465-4 0  9998,2 50821  53.2170 247.4221 0001570  85.2532 274.8640 15.08823635118817,6917.93,95.439,540.882,538.709,0.0
50821.0,STARLINK-3346,PAYLOAD,2024-02-29 21:11:33,15.08830138,0.0001588,53.2164,245.6379,92.2244,267.893,0.00010447,1.375e-05,0.0,0 STARLINK-3346,1 50821U 22001U   24060.88303148  .00001375  00000-0  10447-3 0  9993,2 50821  53.2164 245.6379 0001588  92.2244 267.8930 15.08830138118877,6917.911,95.438,540.874,538.677,0.0
50821.0,STARLINK-3346,PAYLOAD,2024-03-01 11:30:02,15.08829561,0.0001661,53.2161,242.9614,96.5795,263.5386,0.00026784,3.976e-05,0.0,0 STARLINK-3346,1 50821U 22001U   24061.47919758  .00003976  00000-0  26784-3 0  9999,2 50821  53.2161 242.9614 0001661  96.5795 263.5386 15.08829561118962,6917.912,95.438,540.926,538.628,0.0
50821.0,STARLINK-3346,PAYLOAD,2024-03-01 16:16:12,15.08834013,0.0001658,53.2161,242.0694,96.7923,263.3258,0.00030947,4.64e-05,0.0,0 STARLINK-3346,1 50821U 22001U   24061.67791723  .00004640  00000-0  30947-3 0  9996,2 50821  53.2161 242.0694 0001658  96.7923 263.3258 15.08834013118999,6917.899,95.438,540.911,538.617,0.0
50821.0,STARLINK-3346,PAYLOAD,2024-03-02 19:17:45,15.08841083,0.0001551,53.2155,237.0134,92.817,267.3,0.00022598,3.31e-05,0.0,0 STARLINK-3346,1 50821U 22001U   24062.80399862  .00003310  00000-0  22598-3 0  9996,2 50821  53.2155 237.0134 0001551  92.8170 267.3000 15.08841083120412,6917.877,95.437,540.815,538.669,0.0
50821.0,STARLINK-3346,PAYLOAD,2024-03-03 11:11:37,15.08835477,0.0001716,53.2162,234.0404,86.8448,273.274,5.847e-05,6.42e-06,0.0,0 STARLINK-3346,1 50821U 22001U   24063.46640211  .00000642  00000-0  58470-4 0  9990,2 50821  53.2162 234.0404 0001716  86.8448 273.2740 15.08835477120519,6917.894,95.438,540.946,538.572,0.0
50821.0,STARLINK-3346,PAYLOAD,2024-03-03 20:43:55,15.08850993,0.0001711,53.2162,232.2557,88.2995,271.8193,0.00027959,4.166e-05,0.0,0 STARLINK-3346,1 50821U 22001U   24063.86383755  .00004166  00000-0  27959-3 0  9993,2 50821  53.2162 232.2557 0001711  88.2995 271.8193 15.08850993119329,6917.847,95.437,540.895,538.528,0.0
50821.0,STARLINK-3346,PAYLOAD,2024-03-04 04:40:51,15.08849943,0.0001717,53.2163,230.7682,89.3371,270.7818,0.00031409,4.716e-05,0.0,0 STARLINK-3346,1 50821U 22001U   24064.19503681  .00004716  00000-0  31409-3 0  9998,2 50821  53.2163 230.7682 0001717  89.3371 270.7818 15.08849943120628,6917.85,95.437,540.903,538.527,0.0
50821.0,STARLINK-3346,PAYLOAD,2024-03-04 14:13:09,15.08849646,0.0001673,53.2159,228.9834,93.5382,266.5802,0.00030702,4.603e-05,0.0,0 STARLINK-3346,1 50821U 22001U   24064.59247511  .00004603  00000-0  30702-3 0  9999,2 50821  53.2159 228.9834 0001673  93.5382 266.5802 15.08849646119434,6917.851,95.437,540.873,538.559,0.0
50821.0,STARLINK-3346,PAYLOAD,2024-03-04 17:23:56,15.08851924,0.0001672,53.216,228.3888,92.0532,268.0651,0.00035219,5.323e-05,0.0,0 STARLINK-3346,1 50821U 22001U   24064.72495414  .00005323  00000-0  35219-3 0  9999,2 50821  53.2160 228.3888 0001672  92.0532 268.0651 15.08851924119452,6917.844,95.437,540.866,538.552,0.0
50821.0,STARLINK-3346,PAYLOAD,2024-03-05 14:03:56,15.08844776,0.0001313,53.2158,224.5231,85.8576,274.2566,0.00015554,2.189e-05,0.0,0 STARLINK-3346,1 50821U 22001U   24065.58607575  .00002189  00000-0  15554-3 0  9994,2 50821  53.2158 224.5231 0001313  85.8576 274.2566 15.08844776119584,6917.866,95.437,540.639,538.822,0.0
50821.0,STARLINK-3346,PAYLOAD,2024-03-05 20:25:29,15.08832816,0.0001321,53.2159,223.3338,91.6503,268.464,-9.7646e-05,-1.841e-05,0.0,0 STARLINK-3346,1 50821U 22001U   24065.85103770 -.00001841  00000-0 -97646-4 0  9991,2 50821  53.2159 223.3338 0001321  91.6503 268.4640 15.08832816120878,6917.902,95.438,540.681,538.853,0.0
50821.0,STARLINK-3346,PAYLOAD,2024-03-06 13:54:44,15.08837921,0.0001184,53.215,220.0632,90.074,270.0388,0.00015729,2.216e-05,0.0,0 STARLINK-3346,1 50821U 22001U   24066.57968117  .00002216  00000-0  15729-3 0  9991,2 50821  53.2150 220.0632 0001184  90.0740 270.0388 15.08837921119736,6917.887,95.438,540.571,538.933,0.0
50821.0,STARLINK-3346,PAYLOAD,2024-03-06 17:05:30,15.08842918,0.0001337,53.2154,219.4685,93.1955,266.919,0.00016118,2.278e-05,0.0,0 STARLINK-3346,1 50821U 22001U   24066.71215851  .00002278  00000-0  16118-3 0  9998,2 50821  53.2154 219.4685 0001337  93.1955 266.9190 15.08842918121002,6917.871,95.437,540.661,538.812,0.0
50821.0,STARLINK-3346,PAYLOAD,2024-03-07 13:45:32,15.08831855,0.0001532,53.2159,215.6035,103.5251,256.5912,0.00011942,1.613e-05,0.0,0 STARLINK-3346,1 50821U 22001U   24067.57328719  .00001613  00000-0  11942-3 0  9993,2 50821  53.2159 215.6035 0001532 103.5251 256.5912 15.08831855119884,6917.905,95.438,540.83,538.71,0.0
50821.0,STARLINK-3346,PAYLOAD,2024-03-08 18:22:28,15.08838094,0.0001462,53.2158,210.2495,81.5084,278.6074,0.00034777,5.251e-05,0.0,0 STARLINK-3346,1 50821U 22001U   24068.76561008  .00005251  00000-0  34777-3 0  9998,2 50821  53.2158 210.2495 0001462  81.5084 278.6074 15.08838094121312,6917.886,95.438,540.763,538.74,0.0
50821.0,STARLINK-3346,PAYLOAD,2024-03-09 02:19:23,15.08857048,0.0001382,53.2168,208.7624,81.0154,279.0995,0.0002731,4.063e-05,0.0,0 STARLINK-3346,1 50821U 22001U   24069.09679783  .00004063  00000-0  27310-3 0  9990,2 50821  53.2168 208.7624 0001382  81.0154 279.0995 15.08857048121365,6917.828,95.436,540.649,538.737,0.0
50821.0,STARLINK-3346,PAYLOAD,2024-03-09 18:13:15,15.08839641,0.0001616,53.2161,205.7893,79.0126,281.1047,0.00017654,2.523e-05,0.0,0 STARLINK-3346,1 50821U 22001U   24069.75920891  .00002523  00000-0  17654-3 0  9991,2 50821  53.2161 205.7893 0001616  79.0126 281.1047 15.08839641121461,6917.881,95.438,540.864,538.629,0.0
50821.0,STARLINK-3346,PAYLOAD,2024-03-10 08:31:43,15.08850574,0.0002386,53.2073,203.1144,80.6846,279.4415,9.0802e-05,1.157e-05,0.0,0 STARLINK-3346,1 50821U 22001U   24070.35536488  .00001157  00000-0  90802-4 0  9993,2 50821  53.2073 203.1144 0002386  80.6846 279.4415 15.08850574121553,6917.848,95.437,541.364,538.062,0.0
50821.0,STARLINK-3346,PAYLOAD,2024-03-10 14:53:16,15.08835629,0.0001663,53.2121,201.9241,81.7824,278.3357,-0.0001608,-2.846e-05,0.0,0 STARLINK-3346,1 50821U 22001U   24070.62032777 -.00002846  00000-0 -16080-3 0  9998,2 50821  53.2121 201.9241 0001663  81.7824 278.3357 15.08835629120349,6917.894,95.438,540.909,538.608,0.0
50821.0,STARLINK-3346,PAYLOAD,2024-03-10 18:04:02,15.08837416,0.0001815,53.2123,201.3296,81.4751,278.6447,-8.3674e-05,-1.619e-05,0.0,0 STARLINK-3346,1 50821U 22001U   24070.75280800 -.00001619  00000-0 -83674-4 0  9995,2 50821  53.2123 201.3296 0001815  81.4751 278.6447 15.08837416121610,6917.888,95.438,541.009,538.498,0.0
50821.0,STARLINK-3346,PAYLOAD,2024-03-11 02:00:58,15.08846497,0.0001216,53.2152,199.844,84.6092,275.5039,0.00014047,1.949e-05,0.0,0 STARLINK-3346,1 50821U 22001U   24071.08400500  .00001949  00000-0  14047-3 0  9994,2 50821  53.2152 199.8440 0001216  84.6092 275.5039 15.08846497121669,6917.861,95.437,540.567,538.884,0.0
50821.0,STARLINK-3346,PAYLOAD,2024-03-11 14:44:03,15.08844317,0.000227,53.2115,197.4623,90.0422,270.083,0.00025426,3.761e-05,0.0,0 STARLINK-3346,1 50821U 22001U   24071.61393040  .00003761  00000-0  25426-3 0  9990,2 50821  53.2115 197.4623 0002270  90.0422 270.0830 15.08844317120492,6917.867,95.437,541.303,538.162,0.0
50821.0,STARLINK-3346,PAYLOAD,2024-03-11 17:54:49,15.08839701,0.000165,53.2169,196.8675,95.1195,264.9985,0.00013411,1.847e-05,0.0,0 STARLINK-3346,1 50821U 22001U   24071.74641105  .00001847  00000-0  13411-3 0  9996,2 50821  53.2169 196.8675 0001650  95.1195 264.9985 15.08839701121760,6917.881,95.438,540.888,538.605,0.0
50821.0,STARLINK-3346,PAYLOAD,2024-03-12 14:34:50,15.08841823,0.0001582,53.2166,193.0023,97.4233,262.6939,0.00024648,3.637e-05,0.0,0 STARLINK-3346,1 50821U 22001U   24072.60753157  .00003637  00000-0  24648-3 0  9996,2 50821  53.2166 193.0023 0001582  97.4233 262.6939 15.08841823120643,6917.875,95.437,540.834,538.645,0.0
50821.0,STARLINK-3346,PAYLOAD,2024-03-13 11:14:51,15.08835613,0.0001594,53.2156,189.1354,100.8874,259.2298,7.1019e-05,8.42e-06,0.0,0 STARLINK-3346,1 50821U 22001U   24073.46865482  .00000842  00000-0  71019-4 0  9996,2 50821  53.2156 189.1354 0001594 100.8874 259.2298 15.08835613122022,6917.894,95.438,540.862,538.656,0.0
50821.0,STARLINK-3346,PAYLOAD,2024-03-13 14:25:38,15.08835541,0.0001245,53.2159,188.5415,85.1387,274.9747,7.3217e-05,8.77e-06,0.0,0 STARLINK-3346,1 50821U 22001U   24073.60113596  .00000877  00000-0  73217-4 0  9994,2 50821  53.2159 188.5415 0001245  85.1387 274.9747 15.08835541120798,6917.894,95.438,540.62,538.898,0.0
